STARLINK-32182          
1 60319U 24133U   24318.41876168 -.00000987  00000+0 -14692-4 0  9992
2 60319  53.1597  17.6274 0001534 147.0022 213.1079 15.39626113 17926
STARLINK-32199          
1 60320U 24133V   24318.45084572  .00019618  00000+0  49892-3 0  9996
2 60320  53.1588  17.1172 0001479  78.4676 281.6494 15.39635657 17935
STARLINK-32198          
1 60321U 24133W   24318.46013254  .00114130  00000+0  28191-2 0  9990
2 60321  53.1573  17.1756 0001192  95.5151 264.5990 15.39637553 17981
STARLINK-31745          
1 60329U 24136A   24318.27768036  .00001612  00000+0  66545-4 0  9992
2 60329  53.1604 152.1012 0000880 100.5263 259.5837 15.30196533 17155
STARLINK-32153          
1 60330U 24136B   24317.95005335  .00001397  00000+0  59282-4 0  9994
2 60330  53.1605 153.6120 0001125  63.1691 296.9424 15.30197815 16965
STARLINK-32203          
1 60331U 24136C   24317.91940067  .00033316  00000+0  90429-3 0  9994
2 60331  53.1577 152.7098 0003927 240.3979 119.6633 15.37317736 15918
STARLINK-32171          
1 60332U 24136D   24317.87525272  .00000695  00000+0  35620-4 0  9994
2 60332  53.1596 153.8604 0001389  64.8076 295.3069 15.30186153 15894
STARLINK-32133          
1 60333U 24136E   24318.27029890 -.00003160  00000+0 -94694-4 0  9993
2 60333  53.1605 152.0587 0000880  55.9022 304.2062 15.30178900 16967
STARLINK-32132          
1 60334U 24136F   24317.93739501  .00001246  00000+0  54183-4 0  9993
2 60334  53.1602 153.5336 0001276 100.2631 259.8513 15.30194463 16961
STARLINK-32168          
1 60335U 24136G   24318.26080409  .00003940  00000+0  14505-3 0  9993
2 60335  53.1609 151.9946 0001023 107.0841 253.0272 15.30204230 17116
STARLINK-32079          
1 60336U 24136H   24318.25763082  .00002691  00000+0  10291-3 0  9998
2 60336  53.1599 151.9783 0000965  85.5359 274.5752 15.30209397 17167
STARLINK-32078          
1 60338U 24136K   24317.99215832  .00000253  00000+0  20680-4 0  9991
2 60338  53.1613 153.1617 0000964 103.5228 256.5880 15.30190358 17080
STARLINK-32175          
1 60339U 24136L   24317.99004063  .00001613  00000+0  66550-4 0  9991
2 60339  53.1600 153.1479 0000932 102.9112 257.1992 15.30201646 17087
STARLINK-32176          
1 60340U 24136M   24318.50939730  .00000230  00000+0  19881-4 0  9998
2 60340  53.1594 150.7037 0000906  66.1078 294.0018 15.30194732 17162
STARLINK-32185          
1 60341U 24136N   24317.84886764  .00014020  00000+0  48465-3 0  9994
2 60341  53.1566 153.6919 0000680  62.7077 297.3993 15.30194465 15892
STARLINK-32221          
1 60342U 24136P   24318.24390886  .00001153  00000+0  51037-4 0  9998
2 60342  53.1601 151.8904 0000896  99.1318 260.9784 15.30204471 17062
STARLINK-32083          
1 60343U 24136Q   24318.24497121  .00002298  00000+0  89716-4 0  9995
2 60343  53.1606 151.8622 0001649  72.7940 287.3241 15.30198043 16900
STARLINK-32077          
1 60344U 24136R   24317.84569664  .00015532  00000+0  53524-3 0  9995
2 60344  53.1594 153.6709 0000925  93.0117 267.0989 15.30211394 15897
STARLINK-32075          
1 60345U 24136S   24317.84147826  .00003796  00000+0  14021-3 0  9996
2 60345  53.1572 153.6390 0000979  33.9804 326.1259 15.30200889 15899
STARLINK-32082          
1 60346U 24136T   24317.84253054  .00001434  00000+0  60544-4 0  9997
2 60346  53.1613 153.6469 0001035  68.6471 291.4640 15.30195454 15891
STARLINK-32084          
1 60347U 24136U   24317.97001590 -.00001219  00000+0 -29058-4 0  9996
2 60347  53.1615 153.0207 0001167  76.8990 283.2141 15.30182145 17082
STARLINK-32081          
1 60348U 24136V   24317.83621229  .00004331  00000+0  15839-3 0  9996
2 60348  53.1602 153.6081 0000891  77.2019 282.9081 15.30170423 15897
STARLINK-32181          
1 60349U 24136W   24317.82670302  .00000470  00000+0  27986-4 0  9999
2 60349  53.1590 153.5478 0001318 106.5171 253.5975 15.30195765 15895
STARLINK-32076          
1 60350U 24136X   24317.82986459 -.00000384  00000+0 -84216-6 0  9991
2 60350  53.1608 153.5714 0000797  84.3644 275.7448 15.30200617 15892
STARLINK-32097          
1 60351U 24136Y   24318.28075782 -.00001618  00000+0 -42542-4 0  9996
2 60351  53.1611 151.4025 0000671  65.7549 294.3522 15.30178497 17170
STARLINK-32285          
1 60355U 24138A   24318.45828348  .00002142  00000+0  63546-4 0  9993
2 60355  53.1589  28.0954 0002283 126.2775 233.8441 15.39619375 16893
STARLINK-32278          
1 60356U 24138B   24318.45861990 -.00000259  00000+0  35213-5 0  9993
2 60356  53.1595  28.0886 0001963 118.4917 241.6286 15.39617198 16895
STARLINK-32287          
1 60358U 24138D   24318.48183374  .00001404  00000+0  45052-4 0  9994
2 60358  53.1588  28.2447 0000289  85.2723 274.8314 15.39621269 16894
STARLINK-32290          
1 60359U 24138E   24318.48151051  .00001009  00000+0  35201-4 0  9998
2 60359  53.1592  28.2399 0000636  34.7270 325.3777 15.39604347 16835
STARLINK-32275          
1 60360U 24138F   24317.92504869  .00007002  00000+0  18497-3 0  9993
2 60360  53.1591  30.4601 0000724 111.8396 248.2686 15.39601928 16813
STARLINK-32227          
1 60361U 24138G   24318.44932405 -.00006402  00000+0 -15008-3 0  9993
2 60361  53.1589  28.0281 0000849  60.9582 299.1507 15.39644008 16900
STARLINK-32256          
1 60362U 24138H   24317.93466103  .00002878  00000+0  81934-4 0  9997
2 60362  53.1587  30.5073 0001540 108.6436 251.4737 15.39615283 16812
STARLINK-32267          
1 60363U 24138J   24318.44470172 -.00009799  00000+0 -23561-3 0  9998
2 60363  53.1606  28.0144 0001221  66.9929 293.1204 15.39581466 16890
STARLINK-32270          
1 60364U 24138K   24318.46791829 -.00000187  00000+0  53309-5 0  9992
2 60364  53.1593  28.1552 0001796 107.7814 252.3386 15.39578250 16776
STARLINK-32188          
1 60365U 24138L   24318.44899109  .00003348  00000+0  93666-4 0  9991
2 60365  53.1605  28.0420 0001302  91.0844 269.0310 15.39615566 16892
STARLINK-32230          
1 60366U 24138M   24318.47222217 -.00002763  00000+0 -59120-4 0  9994
2 60366  53.1590  28.1817 0002196 107.3144 252.8101 15.39606010 16895
STARLINK-32243          
1 60367U 24138N   24318.49534368  .00003138  00000+0  88452-4 0  9995
2 60367  53.1566  27.6126 0001737  95.6241 264.4962 15.39606557 16477
STARLINK-32271          
1 60368U 24138P   24318.47684142 -.00008561  00000+0 -20386-3 0  9998
2 60368  53.1589  28.2085 0005230 296.4653  63.5815 15.39654969 16895
STARLINK-32266          
1 60369U 24138Q   24318.46965247  .00005030  00000+0  13560-3 0  9998
2 60369  53.1628  16.5840 0001812  89.9199 270.2014 15.39632240 17056
STARLINK-32220          
1 60370U 24138R   24318.49995607  .00007365  00000+0  19372-3 0  9996
2 60370  53.1573  27.6467 0002993 101.6564 258.4777 15.39653672 16903
STARLINK-32263          
1 60371U 24138S   24318.46325718  .00004424  00000+0  12057-3 0  9990
2 60371  53.1602  28.1272 0001862  97.7754 262.3462 15.39611655 16682
STARLINK-32268          
1 60372U 24138T   24318.47718285 -.00002057  00000+0 -41445-4 0  9993
2 60372  53.1593  28.2112 0000599  72.7395 287.3675 15.39631748 16897
STARLINK-32223          
1 60373U 24138U   24317.93433365 -.00002936  00000+0 -63451-4 0  9994
2 60373  53.1586  30.5120 0002377  86.1370 273.9907 15.39599857 16740
STARLINK-32180          
1 60374U 24138V   24318.49567696 -.00001646  00000+0 -31181-4 0  9994
2 60374  53.1583  27.6138 0001728 101.3290 258.7909 15.39602940 16903
STARLINK-32281          
1 60375U 24138W   24318.47256357 -.00000653  00000+0 -63257-5 0  9999
2 60375  53.1591  28.1809 0002246 111.3538 248.7706 15.39595328 16619
STARLINK-32277          
1 60376U 24138X   24318.44004359 -.00009738  00000+0 -23353-3 0  9994
2 60376  53.1573  27.9820 0001481 100.2613 259.8558 15.39649868 16898
STARLINK-32269          
1 60377U 24138Y   24317.90680103  .00008579  00000+0  22439-3 0  9996
2 60377  53.1595  30.3390 0001207  83.9643 276.1499 15.39596624 16818
STARLINK-11228 [DTC]    
1 60398U 24141A   24318.16458167  .00001296  00000+0  15551-4 0  9992
2 60398  53.1585 300.0301 0001404  84.5187 275.5991 15.69718503 16060
STARLINK-11182 [DTC]    
1 60399U 24141B   24318.14986576  .00000151  00000+0  61002-5 0  9993
2 60399  53.1584 299.9301 0001247 106.9284 253.1871 15.69732759 16112
STARLINK-11234 [DTC]    
1 60400U 24141C   24318.33597862  .00005733  00000+0  52130-4 0  9995
2 60400  53.1577 298.9557 0001752  79.5177 280.6038 15.69721185 16094
STARLINK-11232 [DTC]    
1 60401U 24141D   24318.33106599  .00001505  00000+0  17254-4 0  9990
2 60401  53.1582 298.9237 0000515  26.3682 333.7362 15.69735034 16114
STARLINK-11139 [DTC]    
1 60402U 24141E   24318.26250776 -.00000524  00000+0  53545-6 0  9996
2 60402  53.1587 299.2043 0001337  70.2536 289.8626 15.69705356 16127
STARLINK-11158 [DTC]    
1 60403U 24141F   24318.25771160 -.00007478  00000+0 -56915-4 0  9999
2 60403  53.1587 299.9042 0001894   8.7425 351.3626 15.69707018 16071
STARLINK-11199 [DTC]    
1 60404U 24141G   24318.25277155 -.00004739  00000+0 -34234-4 0  9992
2 60404  53.1583 299.8735 0001260  97.3480 262.7681 15.69740435 16120
STARLINK-11081 [DTC]    
1 60405U 24141H   24318.24786638  .00000801  00000+0  11456-4 0  9998
2 60405  53.1586 299.8401 0000926  27.5656 332.5410 15.69729835 16084
STARLINK-11150 [DTC]    
1 60406U 24141J   24318.37033368  .00000719  00000+0  10812-4 0  9991
2 60406  53.1585 299.1802 0001843  77.9357 282.1868 15.69683309 16147
STARLINK-11136 [DTC]    
1 60407U 24141K   24318.23805880  .00006330  00000+0  57057-4 0  9990
2 60407  53.1584 299.7760 0001695  65.6785 294.4410 15.69716813 16078
STARLINK-11196 [DTC]    
1 60408U 24141L   24318.36050438  .00001392  00000+0  16352-4 0  9992
2 60408  53.1602 299.1135 0001009  83.4703 276.6429 15.69704610 16149
STARLINK-11174 [DTC]    
1 60409U 24141M   24318.35068548  .00004779  00000+0  44298-4 0  9995
2 60409  53.1596 299.0480 0001578  81.6811 278.4386 15.69704726 16088
